1 43013U 17073A   25312.80466824  .00000177  00000+0  10490-3 0  9991
2 43013  98.7543 249.4818 0001345 135.6465 224.4819 14.19511612413209
